{"fetched_at":"2026-07-10T18:07:52.116Z","source":"https://celestrak.org/NORAD/elements/gp.php?GROUP=oneweb&FORMAT=JSON","constellation":"oneweb","records":[{"OBJECT_NAME":"ONEWEB-0229","OBJECT_ID":"2021-045N","EPOCH":"2026-07-10T02:34:15.363264","CLASSIFICATION_TYPE":"U","MEAN_MOTION":13.15547717,"ECCENTRICITY":0.0001951,"INCLINATION":87.8995,"RA_OF_ASC_NODE":254.6258,"ARG_OF_PERICENTER":100.4138,"MEAN_ANOMALY":259.7212,"EPHEMERIS_TYPE":0,"NORAD_CAT_ID":48779,"ELEMENT_SET_NO":999,"REV_AT_EPOCH":24742,"BSTAR":0.00007343001,"MEAN_MOTION_DOT":4e-7,"MEAN_MOTION_DDOT":0},{"OBJECT_NAME":"ONEWEB-0228","OBJECT_ID":"2021-045P","EPOCH":"2026-07-10T03:22:22.113408","CLASSIFICATION_TYPE":"U","MEAN_MOTION":13.15549143,"ECCENTRICITY":0.0002104,"INCLINATION":87.9012,"RA_OF_ASC_NODE":254.6134,"ARG_OF_PERICENTER":100.6497,"MEAN_ANOMALY":259.4871,"EPHEMERIS_TYPE":0,"NORAD_CAT_ID":48780,"ELEMENT_SET_NO":999,"REV_AT_EPOCH":24734,"BSTAR":-0.00052570396,"MEAN_MOTION_DOT":-0.00000185,"MEAN_MOTION_DDOT":0},{"OBJECT_NAME":"ONEWEB-0232","OBJECT_ID":"2021-045Q","EPOCH":"2026-07-10T02:45:40.200768","CLASSIFICATION_TYPE":"U","MEAN_MOTION":13.15547978,"ECCENTRICITY":0.00022058,"INCLINATION":87.9007,"RA_OF_ASC_NODE":254.6173,"ARG_OF_PERICENTER":99.1285,"MEAN_ANOMALY":261.0095,"EPHEMERIS_TYPE":0,"NORAD_CAT_ID":48781,"ELEMENT_SET_NO":999,"REV_AT_EPOCH":24766,"BSTAR":-0.0002365046,"MEAN_MOTION_DOT":-7.6e-7,"MEAN_MOTION_DDOT":0},{"OBJECT_NAME":"ONEWEB-0231","OBJECT_ID":"2021-045R","EPOCH":"2026-07-10T04:03:14.540256","CLASSIFICATION_TYPE":"U","MEAN_MOTION":13.15547497,"ECCENTRICITY":0.00021346,"INCLINATION":87.8995,"RA_OF_ASC_NODE":254.6196,"ARG_OF_PERICENTER":105.1488,"MEAN_ANOMALY":254.9879,"EPHEMERIS_TYPE":0,"NORAD_CAT_ID":48782,"ELEMENT_SET_NO":999,"REV_AT_EPOCH":24736,"BSTAR":0.00034560944,"MEAN_MOTION_DOT":0.00000143,"MEAN_MOTION_DDOT":0},{"OBJECT_NAME":"ONEWEB-0234","OBJECT_ID":"2021-045S","EPOCH":"2026-07-09T03:24:29.352096","CLASSIFICATION_TYPE":"U","MEAN_MOTION":13.15547427,"ECCENTRICITY":0.00028313,"INCLINATION":87.8997,"RA_OF_ASC_NODE":254.8064,"ARG_OF_PERICENTER":90.9665,"MEAN_ANOMALY":269.179,"EPHEMERIS_TYPE":0,"NORAD_CAT_ID":48783,"ELEMENT_SET_NO":999,"REV_AT_EPOCH":24736,"BSTAR":-0.00019151225,"MEAN_MOTION_DOT":-5.9e-7,"MEAN_MOTION_DDOT":0},{"OBJECT_NAME":"ONEWEB-0238","OBJECT_ID":"2021-045T","EPOCH":"2026-07-09T03:24:52.063200","CLASSIFICATION_TYPE":"U","MEAN_MOTION":13.15548291,"ECCENTRICITY":0.00024508,"INCLINATION":87.9004,"RA_OF_ASC_NODE":254.8017,"ARG_OF_PERICENTER":93.7309,"MEAN_ANOMALY":266.4101,"EPHEMERIS_TYPE":0,"NORAD_CAT_ID":48784,"ELEMENT_SET_NO":999,"REV_AT_EPOCH":24726,"BSTAR":-0.00012730285,"MEAN_MOTION_DOT":-3.5e-7,"MEAN_MOTION_DDOT":0},{"OBJECT_NAME":"ONEWEB-0240","OBJECT_ID":"2021-045U","EPOCH":"2026-07-10T03:39:16.916832","CLASSIFICATION_TYPE":"U","MEAN_MOTION":13.15549412,"ECCENTRICITY":0.00023368,"INCLINATION":87.901,"RA_OF_ASC_NODE":254.6111,"ARG_OF_PERICENTER":105.8911,"MEAN_ANOMALY":254.2477,"EPHEMERIS_TYPE":0,"NORAD_CAT_ID":48785,"ELEMENT_SET_NO":999,"REV_AT_EPOCH":24742,"BSTAR":0.000008504691,"MEAN_MOTION_DOT":1.6e-7,"MEAN_MOTION_DDOT":0},{"OBJECT_NAME":"ONEWEB-0246","OBJECT_ID":"2021-045V","EPOCH":"2026-07-09T03:47:30.228000","CLASSIFICATION_TYPE":"U","MEAN_MOTION":13.15547594,"ECCENTRICITY":0.00019538,"INCLINATION":87.8997,"RA_OF_ASC_NODE":254.812,"ARG_OF_PERICENTER":100.1645,"MEAN_ANOMALY":259.9706,"EPHEMERIS_TYPE":0,"NORAD_CAT_ID":48786,"ELEMENT_SET_NO":999,"REV_AT_EPOCH":24716,"BSTAR":0.00018524842,"MEAN_MOTION_DOT":8.3e-7,"MEAN_MOTION_DDOT":0},{"OBJECT_NAME":"ONEWEB-0210","OBJECT_ID":"2021-045W","EPOCH":"2026-07-10T02:54:47.367648","CLASSIFICATION_TYPE":"U","MEAN_MOTION":13.15547859,"ECCENTRICITY":0.00016221,"INCLINATION":87.8998,"RA_OF_ASC_NODE":254.6177,"ARG_OF_PERICENTER":121.5636,"MEAN_ANOMALY":238.5653,"EPHEMERIS_TYPE":0,"NORAD_CAT_ID":48787,"ELEMENT_SET_NO":999,"REV_AT_EPOCH":24733,"BSTAR":-0.00027505813,"MEAN_MOTION_DOT":-9.1e-7,"MEAN_MOTION_DDOT":0},{"OBJECT_NAME":"ONEWEB-0214","OBJECT_ID":"2021-045X","EPOCH":"2026-07-10T03:07:18.976800","CLASSIFICATION_TYPE":"U","MEAN_MOTION":13.15546491,"ECCENTRICITY":0.00017262,"INCLINATION":87.8997,"RA_OF_ASC_NODE":254.6128,"ARG_OF_PERICENTER":98.407,"MEAN_ANOMALY":261.7256,"EPHEMERIS_TYPE":0,"NORAD_CAT_ID":48788,"ELEMENT_SET_NO":999,"REV_AT_EPOCH":24730,"BSTAR":-0.00036251552,"MEAN_MOTION_DOT":-0.00000124,"MEAN_MOTION_DDOT":0},{"OBJECT_NAME":"ONEWEB-0221","OBJECT_ID":"2021-045Y","EPOCH":"2026-07-10T03:17:36.823200","CLASSIFICATION_TYPE":"U","MEAN_MOTION":13.15548735,"ECCENTRICITY":0.00021258,"INCLINATION":87.9001,"RA_OF_ASC_NODE":254.6205,"ARG_OF_PERICENTER":104.2559,"MEAN_ANOMALY":255.8808,"EPHEMERIS_TYPE":0,"NORAD_CAT_ID":48789,"ELEMENT_SET_NO":999,"REV_AT_EPOCH":24739,"BSTAR":-0.00052429947,"MEAN_MOTION_DOT":-0.00000185,"MEAN_MOTION_DDOT":0},{"OBJECT_NAME":"ONEWEB-0213","OBJECT_ID":"2021-045Z","EPOCH":"2026-07-10T03:01:38.365536","CLASSIFICATION_TYPE":"U","MEAN_MOTION":13.15548658,"ECCENTRICITY":0.00020391,"INCLINATION":87.9,"RA_OF_ASC_NODE":254.6251,"ARG_OF_PERICENTER":106.2675,"MEAN_ANOMALY":253.868,"EPHEMERIS_TYPE":0,"NORAD_CAT_ID":48790,"ELEMENT_SET_NO":999,"REV_AT_EPOCH":24745,"BSTAR":-0.00032755499,"MEAN_MOTION_DOT":-0.0000011,"MEAN_MOTION_DDOT":0},{"OBJECT_NAME":"ONEWEB-0212","OBJECT_ID":"2021-045AA","EPOCH":"2026-07-10T02:28:31.960416","CLASSIFICATION_TYPE":"U","MEAN_MOTION":13.15547012,"ECCENTRICITY":0.00020993,"INCLINATION":87.8997,"RA_OF_ASC_NODE":254.6239,"ARG_OF_PERICENTER":98.3923,"MEAN_ANOMALY":261.7445,"EPHEMERIS_TYPE":0,"NORAD_CAT_ID":48791,"ELEMENT_SET_NO":999,"REV_AT_EPOCH":24744,"BSTAR":0.00017314752,"MEAN_MOTION_DOT":7.8e-7,"MEAN_MOTION_DDOT":0},{"OBJECT_NAME":"ONEWEB-0227","OBJECT_ID":"2021-045AB","EPOCH":"2026-07-10T04:16:56.022816","CLASSIFICATION_TYPE":"U","MEAN_MOTION":13.15547872,"ECCENTRICITY":0.00021226,"INCLINATION":87.8996,"RA_OF_ASC_NODE":254.6094,"ARG_OF_PERICENTER":101.3385,"MEAN_ANOMALY":258.7984,"EPHEMERIS_TYPE":0,"NORAD_CAT_ID":48792,"ELEMENT_SET_NO":999,"REV_AT_EPOCH":24740,"BSTAR":0.00025990049,"MEAN_MOTION_DOT":0.00000111,"MEAN_MOTION_DDOT":0},{"OBJECT_NAME":"ONEWEB-0226","OBJECT_ID":"2021-045AC","EPOCH":"2026-07-09T09:52:34.590144","CLASSIFICATION_TYPE":"U","MEAN_MOTION":13.15547838,"ECCENTRICITY":0.00019533,"INCLINATION":87.8997,"RA_OF_ASC_NODE":254.7664,"ARG_OF_PERICENTER":106.6086,"MEAN_ANOMALY":253.5259,"EPHEMERIS_TYPE":0,"NORAD_CAT_ID":48793,"ELEMENT_SET_NO":999,"REV_AT_EPOCH":24727,"BSTAR":0.00029576888,"MEAN_MOTION_DOT":0.00000124,"MEAN_MOTION_DDOT":0},{"OBJECT_NAME":"ONEWEB-0224","OBJECT_ID":"2021-045AD","EPOCH":"2026-07-09T03:31:32.453760","CLASSIFICATION_TYPE":"U","MEAN_MOTION":13.15548547,"ECCENTRICITY":0.0002937,"INCLINATION":87.8987,"RA_OF_ASC_NODE":254.8527,"ARG_OF_PERICENTER":104.1681,"MEAN_ANOMALY":255.9776,"EPHEMERIS_TYPE":0,"NORAD_CAT_ID":48794,"ELEMENT_SET_NO":999,"REV_AT_EPOCH":24716,"BSTAR":-0.00014852744,"MEAN_MOTION_DOT":-4.3e-7,"MEAN_MOTION_DDOT":0}]}
